IRIDIUM 26              
1 24903U 97043A   25230.57061400  .00000310  00000+0  97694-4 0  9998
2 24903  86.3906  84.4045 0001951  90.5465 269.5956 14.37183884465703
IRIDIUM 22              
1 24907U 97043E   25230.55208423  .00000285  00000+0  91370-4 0  9994
2 24907  86.3913  88.0083 0002144  90.4634 269.6808 14.35992279465711
DUMMY MASS 1            
1 24925U 97048A   25230.59661838  .00000317  00000+0  32287-4 0  9994
2 24925  86.3327 106.4755 0004377 294.1759  65.9008 14.87029240514408
DUMMY MASS 2            
1 24926U 97048B   25230.36725451  .00000318  00000+0  32537-4 0  9991
2 24926  86.3331 108.2014 0005417 310.2084  49.8666 14.86781024514145
IRIDIUM 29              
1 24944U 97051A   25230.13478222  .00000317  00000+0  10145-3 0  9990
2 24944  86.3959 117.9231 0002365  85.0946 275.0521 14.36510214462165
IRIDIUM 33              
1 24946U 97051C   25230.60312554  .00000229  00000+0  73587-4 0  9991
2 24946  86.3872 116.9920 0006126 224.4408 135.6297 14.34925207461694
IRIDIUM 28              
1 24948U 97051E   25230.41721691  .00000254  00000+0  78449-4 0  9998
2 24948  86.3959 115.2840 0001712  93.7299 266.4094 14.37421692462787
IRIDIUM 36              
1 24967U 97056C   25230.51000822  .00000271  00000+0  83594-4 0  9997
2 24967  86.4021 146.8427 0002200  92.2844 267.8605 14.37649434461174
